NORAD_CAT_ID,OBJECT_NAME,OBJECT_TYPE,EPOCH,MEAN_MOTION,ECCENTRICITY,INCLINATION,RA_OF_ASC_NODE,ARG_OF_PERICENTER,MEAN_ANOMALY,BSTAR,MEAN_MOTION_DOT,MEAN_MOTION_DDOT,TLE_LINE0,TLE_LINE1,TLE_LINE2,SEMIMAJOR_AXIS,PERIOD,APOGEE,PERIGEE,DECAYED
55920.0,STARLINK-5862,PAYLOAD,2024-04-25 15:46:16,14.98333595,0.0002586,70.0021,206.8228,257.3529,102.7341,2.4506e-05,2e-06,0.0,0 STARLINK-5862,1 55920U 23037G   24116.65713974  .00000200  00000-0  24506-4 0  9995,2 55920  70.0021 206.8228 0002586 257.3529 102.7341 14.98333595 62001,6950.182,96.107,573.844,570.249,0.0
55920.0,STARLINK-5862,PAYLOAD,2024-04-26 14:12:08,14.98338375,0.0002795,70.0018,204.4671,267.1667,92.9172,0.0001465,1.656e-05,0.0,0 STARLINK-5862,1 55920U 23037G   24117.59177047  .00001656  00000-0  14650-3 0  9998,2 55920  70.0018 204.4671 0002795 267.1667  92.9172 14.98338375 61807,6950.167,96.106,573.975,570.089,0.0
55920.0,STARLINK-5862,PAYLOAD,2024-04-26 15:48:16,14.98338718,0.0002721,70.0018,204.299,266.4878,93.597,0.00015845,1.799e-05,0.0,0 STARLINK-5862,1 55920U 23037G   24117.65852907  .00001799  00000-0  15845-3 0  9995,2 55920  70.0018 204.2990 0002721 266.4878  93.5970 14.98338718 62157,6950.166,96.106,573.922,570.14,0.0
55920.0,STARLINK-5862,PAYLOAD,2024-04-27 14:14:09,14.9834237,0.0003084,70.0005,201.9396,266.0646,94.016,2.1923e-05,1.69e-06,0.0,0 STARLINK-5862,1 55920U 23037G   24118.59316601  .00000169  00000-0  21923-4 0  9990,2 55920  70.0005 201.9396 0003084 266.0646  94.0160 14.98342370 61952,6950.155,96.106,574.163,569.876,0.0
55920.0,STARLINK-5862,PAYLOAD,2024-04-27 15:50:17,14.98343882,0.0003044,70.0007,201.7713,265.2422,94.8389,4.2832e-05,4.18e-06,0.0,0 STARLINK-5862,1 55920U 23037G   24118.65992394  .00000418  00000-0  42832-4 0  9995,2 55920  70.0007 201.7713 0003044 265.2422  94.8389 14.98343882 62304,6950.15,96.106,574.131,569.899,0.0
55920.0,STARLINK-5862,PAYLOAD,2024-04-27 22:14:50,14.98329029,0.0002364,70.0022,201.0979,267.639,92.4498,-0.00011344,-1.446e-05,0.0,0 STARLINK-5862,1 55920U 23037G   24118.92697880 -.00001446  00000-0 -11344-3 0  9994,2 55920  70.0022 201.0979 0002364 267.6390  92.4498 14.98329029 62001,6950.196,96.107,573.704,570.418,0.0
55920.0,STARLINK-5862,PAYLOAD,2024-04-28 12:40:04,14.98319173,0.0002593,70.0019,199.5857,259.4029,100.6838,-0.00020019,-2.48e-05,0.0,0 STARLINK-5862,1 55920U 23037G   24119.52782893 -.00002480  00000-0 -20019-3 0  9998,2 55920  70.0019 199.5857 0002593 259.4029 100.6838 14.98319173 62431,6950.226,96.108,573.894,570.289,0.0
55920.0,STARLINK-5862,PAYLOAD,2024-04-28 14:16:12,14.98319345,0.0002613,70.0016,199.4179,255.3622,104.7248,-0.00024444,-3.007e-05,0.0,0 STARLINK-5862,1 55920U 23037G   24119.59459030 -.00003007  00000-0 -24444-3 0  9991,2 55920  70.0016 199.4179 0002613 255.3622 104.7248 14.98319345 62106,6950.226,96.108,573.907,570.275,0.0
55920.0,STARLINK-5862,PAYLOAD,2024-04-28 22:16:52,14.98329844,0.0002868,70.0007,198.5745,265.5713,94.5118,-0.00019776,-2.452e-05,0.0,0 STARLINK-5862,1 55920U 23037G   24119.92838236 -.00002452  00000-0 -19776-3 0  9992,2 55920  70.0007 198.5745 0002868 265.5713  94.5118 14.98329844 62153,6950.193,96.107,574.052,570.065,0.0
55920.0,STARLINK-5862,PAYLOAD,2024-04-29 12:42:04,14.98333949,0.0002984,70.0002,197.0584,267.7742,92.3075,-5.1847e-06,-1.55e-06,0.0,0 STARLINK-5862,1 55920U 23037G   24120.52921557 -.00000155  00000-0 -51847-5 0  9994,2 55920  70.0002 197.0584 0002984 267.7742  92.3075 14.98333949 62584,6950.181,96.107,574.12,569.972,0.0
55920.0,STARLINK-5862,PAYLOAD,2024-04-29 14:18:12,14.98335142,0.0003019,70.0001,196.8897,268.1983,91.883,-4.7881e-08,-9.4e-07,0.0,0 STARLINK-5862,1 55920U 23037G   24120.59597445 -.00000094  00000-0 -47881-7 0  9993,2 55920  70.0001 196.8897 0003019 268.1983  91.8830 14.98335142 62253,6950.177,96.107,574.14,569.944,0.0
55920.0,STARLINK-5862,PAYLOAD,2024-04-29 22:18:52,14.98337018,0.0003062,70.0001,196.0484,269.3973,90.6836,-8.6035e-06,-1.96e-06,0.0,0 STARLINK-5862,1 55920U 23037G   24120.92977263 -.00000196  00000-0 -86035-5 0  9995,2 55920  70.0001 196.0484 0003062 269.3973  90.6836 14.98337018 62300,6950.171,96.107,574.164,569.908,0.0
55920.0,STARLINK-5862,PAYLOAD,2024-04-30 12:44:05,14.9832809,0.0003072,69.9998,194.5332,271.7313,88.3494,0.00018212,2.081e-05,0.0,0 STARLINK-5862,1 55920U 23037G   24121.53061465  .00002081  00000-0  18212-3 0  9994,2 55920  69.9998 194.5332 0003072 271.7313  88.3494 14.98328090 62734,6950.199,96.107,574.199,569.929,0.0
55920.0,STARLINK-5862,PAYLOAD,2024-04-30 14:20:13,14.98329113,0.0003065,69.9999,194.3649,271.8391,88.2417,0.00018955,2.169e-05,0.0,0 STARLINK-5862,1 55920U 23037G   24121.59737383  .00002169  00000-0  18955-3 0  9990,2 55920  69.9999 194.3649 0003065 271.8391  88.2417 14.98329113 62408,6950.196,96.107,574.191,569.93,0.0
55920.0,STARLINK-5862,PAYLOAD,2024-04-30 22:20:53,14.98328842,0.0003043,70.0,193.5233,271.743,88.338,9.5588e-05,1.048e-05,0.0,0 STARLINK-5862,1 55920U 23037G   24121.93117648  .00001048  00000-0  95588-4 0  9997,2 55920  70.0000 193.5233 0003043 271.7430  88.3380 14.98328842 62456,6950.196,96.107,574.176,569.947,0.0
55920.0,STARLINK-5862,PAYLOAD,2024-05-01 11:09:57,14.98336695,0.0003059,69.9999,192.177,271.8945,88.1864,1.8997e-06,-7e-07,0.0,0 STARLINK-5862,1 55920U 23037G   24122.46525255 -.00000070  00000-0  18997-5 0  9998,2 55920  69.9999 192.1770 0003059 271.8945  88.1864 14.98336695 62539,6950.172,96.107,574.163,569.911,0.0
55920.0,STARLINK-5862,PAYLOAD,2024-05-01 22:22:54,14.98334183,0.0003076,69.9998,190.9982,272.0712,88.0094,-4.4628e-05,-6.26e-06,0.0,0 STARLINK-5862,1 55920U 23037G   24122.93257345 -.00000626  00000-0 -44628-4 0  9999,2 55920  69.9998 190.9982 0003076 272.0712  88.0094 14.98334183 62605,6950.18,96.107,574.183,569.907,0.0
55920.0,STARLINK-5862,PAYLOAD,2024-05-02 04:47:26,14.98330809,0.000305,69.9998,190.3251,271.6754,88.4055,-4.775e-05,-6.63e-06,0.0,0 STARLINK-5862,1 55920U 23037G   24123.19961511 -.00000663  00000-0 -47750-4 0  9995,2 55920  69.9998 190.3251 0003050 271.6754  88.4055 14.98330809 62984,6950.19,96.107,574.175,569.936,0.0
55920.0,STARLINK-5862,PAYLOAD,2024-05-02 14:24:15,14.98330686,0.0003106,69.9997,189.3156,272.365,87.7153,-7.7836e-05,-1.022e-05,0.0,0 STARLINK-5862,1 55920U 23037G   24123.60017568 -.00001022  00000-0 -77836-4 0  9993,2 55920  69.9997 189.3156 0003106 272.3650  87.7153 14.98330686 62704,6950.191,96.107,574.214,569.897,0.0
55920.0,STARLINK-5862,PAYLOAD,2024-05-03 04:49:27,14.98336399,0.0003206,69.9992,187.8005,272.4423,87.6369,2.6592e-05,2.24e-06,0.0,0 STARLINK-5862,1 55920U 23037G   24124.20100720  .00000224  00000-0  26592-4 0  9997,2 55920  69.9992 187.8005 0003206 272.4423  87.6369 14.98336399 63138,6950.173,96.107,574.266,569.81,0.0
55920.0,STARLINK-5862,PAYLOAD,2024-05-03 14:26:14,14.98342136,0.000314,69.9995,186.791,272.3121,87.7679,0.00011385,1.266e-05,0.0,0 STARLINK-5862,1 55920U 23037G   24124.60155893  .00001266  00000-0  11385-3 0  9992,2 55920  69.9995 186.7910 0003140 272.3121  87.7679 14.98342136 62854,6950.155,96.106,574.203,569.838,0.0
55920.0,STARLINK-5862,PAYLOAD,2024-05-03 20:50:48,14.98327342,0.0002774,70.0028,186.1165,273.5398,86.5444,-3.0793e-05,-4.6e-06,0.0,0 STARLINK-5862,1 55920U 23037G   24124.86861215 -.00000460  00000-0 -30793-4 0  9994,2 55920  70.0028 186.1165 0002774 273.5398  86.5444 14.98327342 63233,6950.201,96.107,573.994,570.138,0.0
55920.0,STARLINK-5862,PAYLOAD,2024-05-04 04:51:29,14.98307042,0.0003367,70.0006,185.2807,264.7371,95.3404,1.7359e-05,1.14e-06,0.0,0 STARLINK-5862,1 55920U 23037G   24125.20242307  .00000114  00000-0  17359-4 0  9995,2 55920  70.0006 185.2807 0003367 264.7371  95.3404 14.98307042 63288,6950.264,96.108,574.469,569.789,0.0
55920.0,STARLINK-5862,PAYLOAD,2024-05-05 04:53:30,14.98322475,0.000296,69.9998,182.7541,259.7195,100.3631,-0.00017709,-2.205e-05,0.0,0 STARLINK-5862,1 55920U 23037G   24126.20382791 -.00002205  00000-0 -17709-3 0  9991,2 55920  69.9998 182.7541 0002960 259.7195 100.3631 14.98322475 63431,6950.216,96.107,574.138,570.024,0.0
55920.0,STARLINK-5862,PAYLOAD,2024-05-05 12:54:11,14.98324383,0.0003067,69.9993,181.9102,268.7636,91.3172,-0.00014985,-1.88e-05,0.0,0 STARLINK-5862,1 55920U 23037G   24126.53762782 -.00001880  00000-0 -14985-3 0  9990,2 55920  69.9993 181.9102 0003067 268.7636  91.3172 14.98324383 63146,6950.21,96.107,574.207,569.944,0.0
55920.0,STARLINK-5862,PAYLOAD,2024-05-05 20:54:53,14.98299564,0.0002721,69.9996,181.0685,267.4185,92.6662,-0.00042211,-5.122e-05,0.0,0 STARLINK-5862,1 55920U 23037G   24126.87145625 -.00005122  00000-0 -42211-3 0  9994,2 55920  69.9996 181.0685 0002721 267.4185  92.6662 14.98299564 63530,6950.287,96.109,574.043,570.261,0.0
55920.0,STARLINK-5862,PAYLOAD,2024-05-06 04:55:31,14.9832074,0.0003014,69.9992,180.2267,268.909,91.1724,0.00023467,2.707e-05,0.0,0 STARLINK-5862,1 55920U 23037G   24127.20522892  .00002707  00000-0  23467-3 0  9993,2 55920  69.9992 180.2267 0003014 268.9090  91.1724 14.98320740 63589,6950.222,96.108,574.181,569.992,0.0
55920.0,STARLINK-5862,PAYLOAD,2024-05-06 12:56:12,14.98325443,0.0002999,69.9991,179.385,270.2865,89.795,0.0002413,2.787e-05,0.0,0 STARLINK-5862,1 55920U 23037G   24127.53902795  .00002787  00000-0  24130-3 0  9999,2 55920  69.9991 179.3850 0002999 270.2865  89.7950 14.98325443 63299,6950.207,96.107,574.156,569.988,0.0
55920.0,STARLINK-5862,PAYLOAD,2024-05-06 20:56:51,14.98334075,0.000306,69.999,178.5428,271.894,88.1868,0.00026067,3.019e-05,0.0,0 STARLINK-5862,1 55920U 23037G   24127.87282227  .00003019  00000-0  26067-3 0  9997,2 55920  69.9990 178.5428 0003060 271.8940  88.1868 14.98334075 63686,6950.18,96.107,574.172,569.919,0.0
55920.0,STARLINK-5862,PAYLOAD,2024-05-07 12:58:11,14.98346186,0.0003094,69.9989,176.8595,270.7138,89.3667,0.00028832,3.35e-05,0.0,0 STARLINK-5862,1 55920U 23037G   24128.54040953  .00003350  00000-0  28832-3 0  9990,2 55920  69.9989 176.8595 0003094 270.7138  89.3667 14.98346186 63781,6950.143,96.106,574.158,569.857,0.0
